start=new Date('2022-11-24T00:00:00.000Z').valueOf();
sats=[{"NORAD_CAT_ID":"48442","RCS_SIZE":"LARGE","LAUNCH_DATE":"2021-05-09","INCLINATION":"53.0531","ARG_OF_PERICENTER":"66.3960","BSTAR":"0.00003261900000","COUNTRY_CODE":"US","TLE_LINE1":"1 48442U 21040Q   22327.86620605  .00000204  00000-0  32619-4 0  9999","MEAN_ELEMENT_THEORY":"SGP4","APOAPSIS":"548.365","SITE":"AFETR","PERIAPSIS":"546.103","ELEMENT_SET_NO":"999","FILE":"3668355","CLASSIFICATION_TYPE":"U","REF_FRAME":"TEME","GP_ID":"218600694","RA_OF_ASC_NODE":"176.8263","EPHEMERIS_TYPE":"0","OBJECT_TYPE":"PAYLOAD","SEMIMAJOR_AXIS":"6925.369","TLE_LINE2":"2 48442  53.0531 176.8263 0001633  66.3960 293.7200 15.06393201 85485","MEAN_MOTION_DOT":"0.00000204","MEAN_MOTION":"15.06393201","EPOCH":"2022-11-23T20:47:20.202720","CENTER_NAME":"EARTH","DECAY_DATE":null,"MEAN_MOTION_DDOT":"0.0000000000000","REV_AT_EPOCH":"8548","OBJECT_ID":"2021-040Q","MEAN_ANOMALY":"293.7200","ECCENTRICITY":"0.00016330","TIME_SYSTEM":"UTC","OBJECT_NAME":"STARLINK-2644","PERIOD":"95.593"},{"OBJECT_TYPE":"PAYLOAD","REF_FRAME":"TEME","RA_OF_ASC_NODE":"176.8388","GP_ID":"218600437","EPHEMERIS_TYPE":"0","FILE":"3668355","CLASSIFICATION_TYPE":"U","EPOCH":"2022-11-23T20:42:01.156032","MEAN_MOTION_DOT":"0.00000259","MEAN_MOTION":"15.06401095","SEMIMAJOR_AXIS":"6925.345","TLE_LINE2":"2 48443  53.0531 176.8388 0001666  77.3474 282.7702 15.06401095 85488","REV_AT_EPOCH":"8548","DECAY_DATE":null,"CENTER_NAME":"EARTH","MEAN_MOTION_DDOT":"0.0000000000000","PERIOD":"95.592","ECCENTRICITY":"0.00016660","MEAN_ANOMALY":"282.7702","TIME_SYSTEM":"UTC","OBJECT_NAME":"STARLINK-2663","OBJECT_ID":"2021-040R","NORAD_CAT_ID":"48443","RCS_SIZE":"LARGE","COUNTRY_CODE":"US","BSTAR":"0.00003628000000","INCLINATION":"53.0531","ARG_OF_PERICENTER":"77.3474","LAUNCH_DATE":"2021-05-09","SITE":"AFETR","MEAN_ELEMENT_THEORY":"SGP4","TLE_LINE1":"1 48443U 21040R   22327.86251338  .00000259  00000-0  36280-4 0  9991","APOAPSIS":"548.364","PERIAPSIS":"546.056","ELEMENT_SET_NO":"999"},{"NORAD_CAT_ID":"48444","RCS_SIZE":"LARGE","COUNTRY_CODE":"US","BSTAR":"0.00004084800000","INCLINATION":"53.0542","ARG_OF_PERICENTER":"63.7272","LAUNCH_DATE":"2021-05-09","SITE":"AFETR","TLE_LINE1":"1 48444U 21040S   22327.85882402  .00000327  00000-0  40848-4 0  9994","APOAPSIS":"548.444","MEAN_ELEMENT_THEORY":"SGP4","ELEMENT_SET_NO":"999","PERIAPSIS":"545.969","OBJECT_TYPE":"PAYLOAD","REF_FRAME":"TEME","GP_ID":"218599693","RA_OF_ASC_NODE":"176.8557","EPHEMERIS_TYPE":"0","FILE":"3668355","CLASSIFICATION_TYPE":"U","EPOCH":"2022-11-23T20:36:42.395328","MEAN_MOTION_DOT":"0.00000327","MEAN_MOTION":"15.06402439","SEMIMAJOR_AXIS":"6925.341","TLE_LINE2":"2 48444  53.0542 176.8557 0001787  63.7272 296.3901 15.06402439 85483","REV_AT_EPOCH":"8548","DECAY_DATE":null,"CENTER_NAME":"EARTH","MEAN_MOTION_DDOT":"0.0000000000000","PERIOD":"95.592","ECCENTRICITY":"0.00017870","MEAN_ANOMALY":"296.3901","TIME_SYSTEM":"UTC","OBJECT_NAME":"STARLINK-2645","OBJECT_ID":"2021-040S"},{"MEAN_ELEMENT_THEORY":"SGP4","TLE_LINE1":"1 48445U 21040T   22327.85514021  .00001341  00000-0  10897-3 0  9991","APOAPSIS":"548.752","SITE":"AFETR","ELEMENT_SET_NO":"999","PERIAPSIS":"545.714","RCS_SIZE":"LARGE","NORAD_CAT_ID":"48445","BSTAR":"0.00010897000000","COUNTRY_CODE":"US","LAUNCH_DATE":"2021-05-09","ARG_OF_PERICENTER":"51.1080","INCLINATION":"53.0538","REV_AT_EPOCH":"8548","MEAN_MOTION_DDOT":"0.0000000000000","DECAY_DATE":null,"CENTER_NAME":"EARTH","PERIOD":"95.593","OBJECT_ID":"2021-040T","OBJECT_NAME":"STARLINK-2634","TIME_SYSTEM":"UTC","ECCENTRICITY":"0.00021940","MEAN_ANOMALY":"309.0104","OBJECT_TYPE":"PAYLOAD","CLASSIFICATION_TYPE":"U","FILE":"3668355","RA_OF_ASC_NODE":"176.8680","GP_ID":"218599943","EPHEMERIS_TYPE":"0","REF_FRAME":"TEME","MEAN_MOTION_DOT":"0.00001341","MEAN_MOTION":"15.06393648","EPOCH":"2022-11-23T20:31:24.114144","TLE_LINE2":"2 48445  53.0538 176.8680 0002194  51.1080 309.0104 15.06393648 85485","SEMIMAJOR_AXIS":"6925.368"},{"PERIAPSIS":"545.897","ELEMENT_SET_NO":"999","TLE_LINE1":"1 48446U 21040U   22327.85145996  .00000760  00000-0  69910-4 0  9998","APOAPSIS":"548.580","MEAN_ELEMENT_THEORY":"SGP4","SITE":"AFETR","LAUNCH_DATE":"2021-05-09","INCLINATION":"53.0532","ARG_OF_PERICENTER":"58.9843","BSTAR":"0.00006991000000","COUNTRY_CODE":"US","NORAD_CAT_ID":"48446","RCS_SIZE":"LARGE","OBJECT_ID":"2021-040U","MEAN_ANOMALY":"301.1336","ECCENTRICITY":"0.00019370","TIME_SYSTEM":"UTC","OBJECT_NAME":"STARLINK-2247","PERIOD":"95.593","DECAY_DATE":null,"CENTER_NAME":"EARTH","MEAN_MOTION_DDOT":"0.0000000000000","REV_AT_EPOCH":"8548","SEMIMAJOR_AXIS":"6925.373","TLE_LINE2":"2 48446  53.0532 176.8908 0001937  58.9843 301.1336 15.06391873 85487","MEAN_MOTION_DOT":"0.00000760","MEAN_MOTION":"15.06391873","EPOCH":"2022-11-23T20:26:06.140544","FILE":"3668355","CLASSIFICATION_TYPE":"U","REF_FRAME":"TEME","GP_ID":"218600194","EPHEMERIS_TYPE":"0","RA_OF_ASC_NODE":"176.8908","OBJECT_TYPE":"PAYLOAD"},{"MEAN_MOTION":"15.06391655","MEAN_MOTION_DOT":"0.00001561","EPOCH":"2022-11-23T20:20:47.728032","SEMIMAJOR_AXIS":"6925.374","TLE_LINE2":"2 48447  53.0546 176.9102 0001802  54.8589 305.2569 15.06391655 85484","OBJECT_TYPE":"PAYLOAD","FILE":"3668355","CLASSIFICATION_TYPE":"U","REF_FRAME":"TEME","GP_ID":"218600938","RA_OF_ASC_NODE":"176.9102","EPHEMERIS_TYPE":"0","PERIOD":"95.593","OBJECT_ID":"2021-040V","ECCENTRICITY":"0.00018020","MEAN_ANOMALY":"305.2569","TIME_SYSTEM":"UTC","OBJECT_NAME":"STARLINK-2269","REV_AT_EPOCH":"8548","DECAY_DATE":null,"CENTER_NAME":"EARTH","MEAN_MOTION_DDOT":"0.0000000000000","BSTAR":"0.00012368000000","COUNTRY_CODE":"US","LAUNCH_DATE":"2021-05-09","INCLINATION":"53.0546","ARG_OF_PERICENTER":"54.8589","NORAD_CAT_ID":"48447","RCS_SIZE":"LARGE","PERIAPSIS":"545.991","ELEMENT_SET_NO":"999","TLE_LINE1":"1 48447U 21040V   22327.84777463  .00001561  00000-0  12368-3 0  9992","APOAPSIS":"548.487","MEAN_ELEMENT_THEORY":"SGP4","SITE":"AFETR"},{"PERIOD":"95.593","OBJECT_ID":"2021-040W","TIME_SYSTEM":"UTC","OBJECT_NAME":"STARLINK-2632","MEAN_ANOMALY":"308.5324","ECCENTRICITY":"0.00019120","REV_AT_EPOCH":"8547","MEAN_MOTION_DDOT":"0.0000000000000","CENTER_NAME":"EARTH","DECAY_DATE":null,"MEAN_MOTION_DOT":"-0.00000190","MEAN_MOTION":"15.06391149","EPOCH":"2022-11-23T19:21:02.838240","TLE_LINE2":"2 48448  53.0538 177.0908 0001912  51.5836 308.5324 15.06391149 85475","SEMIMAJOR_AXIS":"6925.376","OBJECT_TYPE":"PAYLOAD","CLASSIFICATION_TYPE":"U","FILE":"3668355","EPHEMERIS_TYPE":"0","GP_ID":"218599193","RA_OF_ASC_NODE":"177.0908","REF_FRAME":"TEME","ELEMENT_SET_NO":"999","PERIAPSIS":"545.917","TLE_LINE1":"1 48448U 21040W   22327.80628285 -.00000190  00000-0  61701-5 0  9991","MEAN_ELEMENT_THEORY":"SGP4","APOAPSIS":"548.565","SITE":"AFETR","BSTAR":"0.00000617010000","COUNTRY_CODE":"US","LAUNCH_DATE":"2021-05-09","ARG_OF_PERICENTER":"51.5836","INCLINATION":"53.0538","RCS_SIZE":"LARGE","NORAD_CAT_ID":"48448"},{"OBJECT_TYPE":"PAYLOAD","FILE":"3668355","CLASSIFICATION_TYPE":"U","REF_FRAME":"TEME","RA_OF_ASC_NODE":"176.9196","GP_ID":"218599443","EPHEMERIS_TYPE":"0","MEAN_MOTION":"15.06398142","MEAN_MOTION_DOT":"0.00001622","EPOCH":"2022-11-23T20:15:28.725408","SEMIMAJOR_AXIS":"6925.354","TLE_LINE2":"2 48449  53.0533 176.9196 0001733  61.8520 298.2644 15.06398142 85484","REV_AT_EPOCH":"8548","DECAY_DATE":null,"CENTER_NAME":"EARTH","MEAN_MOTION_DDOT":"0.0000000000000","PERIOD":"95.592","OBJECT_ID":"2021-040X","ECCENTRICITY":"0.00017330","MEAN_ANOMALY":"298.2644","OBJECT_NAME":"STARLINK-2655","TIME_SYSTEM":"UTC","NORAD_CAT_ID":"48449","RCS_SIZE":"LARGE","BSTAR":"0.00012775000000","COUNTRY_CODE":"US","LAUNCH_DATE":"2021-05-09","INCLINATION":"53.0533","ARG_OF_PERICENTER":"61.8520","TLE_LINE1":"1 48449U 21040X   22327.84408247  .00001622  00000-0  12775-3 0  9995","APOAPSIS":"548.419","MEAN_ELEMENT_THEORY":"SGP4","SITE":"AFETR","ELEMENT_SET_NO":"999","PERIAPSIS":"546.019"},{"REV_AT_EPOCH":"8548","MEAN_MOTION_DDOT":"0.0000000000000","DECAY_DATE":null,"CENTER_NAME":"EARTH","PERIOD":"95.593","OBJECT_ID":"2021-040Y","TIME_SYSTEM":"UTC","OBJECT_NAME":"STARLINK-2660","MEAN_ANOMALY":"297.0725","ECCENTRICITY":"0.00017070","OBJECT_TYPE":"PAYLOAD","CLASSIFICATION_TYPE":"U","FILE":"3668355","GP_ID":"218600695","EPHEMERIS_TYPE":"0","RA_OF_ASC_NODE":"176.9341","REF_FRAME":"TEME","MEAN_MOTION_DOT":"0.00001027","MEAN_MOTION":"15.06388718","EPOCH":"2022-11-23T20:10:11.326368","TLE_LINE2":"2 48450  53.0545 176.9341 0001707  63.0438 297.0725 15.06388718 85489","SEMIMAJOR_AXIS":"6925.383","TLE_LINE1":"1 48450U 21040Y   22327.84040887  .00001027  00000-0  87830-4 0  9993","APOAPSIS":"548.430","MEAN_ELEMENT_THEORY":"SGP4","SITE":"AFETR","PERIAPSIS":"546.066","ELEMENT_SET_NO":"999","RCS_SIZE":"LARGE","NORAD_CAT_ID":"48450","BSTAR":"0.00008783000000","COUNTRY_CODE":"US","LAUNCH_DATE":"2021-05-09","ARG_OF_PERICENTER":"63.0438","INCLINATION":"53.0545"},{"OBJECT_TYPE":"PAYLOAD","FILE":"3668355","CLASSIFICATION_TYPE":"U","REF_FRAME":"TEME","RA_OF_ASC_NODE":"177.2727","GP_ID":"218600438","EPHEMERIS_TYPE":"0","MEAN_MOTION":"15.06401892","MEAN_MOTION_DOT":"0.00000184","EPOCH":"2022-11-23T18:33:16.181280","SEMIMAJOR_AXIS":"6925.343","TLE_LINE2":"2 48451  53.0545 177.2727 0001581  82.6570 277.4599 15.06401892 85475","REV_AT_EPOCH":"8547","DECAY_DATE":null,"CENTER_NAME":"EARTH","MEAN_MOTION_DDOT":"0.0000000000000","PERIOD":"95.592","OBJECT_ID":"2021-040Z","MEAN_ANOMALY":"277.4599","ECCENTRICITY":"0.00015810","OBJECT_NAME":"STARLINK-2652","TIME_SYSTEM":"UTC","NORAD_CAT_ID":"48451","RCS_SIZE":"LARGE","BSTAR":"0.00003123600000","COUNTRY_CODE":"US","LAUNCH_DATE":"2021-05-09","INCLINATION":"53.0545","ARG_OF_PERICENTER":"82.6570","APOAPSIS":"548.303","TLE_LINE1":"1 48451U 21040Z   22327.77310395  .00000184  00000-0  31236-4 0  9992","MEAN_ELEMENT_THEORY":"SGP4","SITE":"AFETR","ELEMENT_SET_NO":"999","PERIAPSIS":"546.113"}];
